QIANFAN-41              
1 62242U 24232F   25347.94710726  .00000105  00000+0  14383-3 0  9993
2 62242  89.0026  41.0756 0014309 179.9655 180.1499 13.50978533 99414
QIANFAN-42              
1 62243U 24232G   25347.89669252  .00000497  00000+0  20818-3 0  9999
2 62243  89.0016  37.2253 0017255  83.2425 277.0730 14.24488024101532
QIANFAN-43              
1 62244U 24232H   25347.94294407  .00000108  00000+0  14787-3 0  9999
2 62244  89.0031  41.1414 0015631 185.8754 174.2216 13.50977446 68025
QIANFAN-44              
1 62245U 24232J   25347.93065517  .00000119  00000+0  16506-3 0  9990
2 62245  89.0029  40.9534 0013957 182.0709 178.0387 13.50979770 99499
QIANFAN-45              
1 62246U 24232K   25347.89770542 -.00000156  00000+0 -26049-3 0  9993
2 62246  89.0029  41.1032 0014565 182.4016 177.7068 13.50975692 99410
QIANFAN-46              
1 62247U 24232L   25347.92239280  .00000120  00000+0  16681-3 0  9997
2 62247  89.0028  41.1698 0014484 187.5732 172.5203 13.50981812 99379
QIANFAN-47              
1 62248U 24232M   25347.92654131  .00000120  00000+0  16744-3 0  9994
2 62248  89.0024  41.1023 0014940 186.9376 173.1571 13.50977838 99404
QIANFAN-48              
1 62249U 24232N   25347.88948919  .00000122  00000+0  16981-3 0  9995
2 62249  89.0028  41.1079 0017085 190.6585 169.4206 13.50979605 99404
